{
    "week": 294,
    "satellites": [
        {
            "Name": "GSAT0208 (GALILEO 11)",
            "Line1": "1 41175U 15079B   24329.09943105  .00000054  00000+0  00000+0 0  9998",
            "Line2": "2 41175  55.5010 116.9174 0001371   5.7925 354.1937  1.70474365 55475",
            "SatelliteNumber": "41175",
            "Classification": "U",
            "LaunchYear": "15",
            "LaunchNumber": "079",
            "PieceOfLaunch": "B",
            "EpochYear": "24",
            "EpochDay": 329.09943105,
            "FirstDerivativeMeanMotion": 5.4e-07,
            "SecondDerivativeMeanMotion": "00000+0",
            "BSTAR": "00000+0",
            "SetNumber": "999",
            "Inclination": 55.501,
            "RAAN": 116.9174,
            "Eccentricity": 0.0001371,
            "ArgumentOfPerigee": 5.7925,
            "MeanAnomaly": 354.1937,
            "MeanMotion": 1.70474365,
            "RevolutionNumber": "5547"
        },
        {
            "Name": "GSAT0211 (GALILEO 14)",
            "Line1": "1 41549U 16030A   24329.22262188 -.00000024  00000+0  00000+0 0  9999",
            "Line2": "2 41549  55.2960 237.3743 0003769 358.2808   1.7588  1.70473020 52954",
            "SatelliteNumber": "41549",
            "Classification": "U",
            "LaunchYear": "16",
            "LaunchNumber": "030",
            "PieceOfLaunch": "A",
            "EpochYear": "24",
            "EpochDay": 329.22262188,
            "FirstDerivativeMeanMotion": -2.4e-07,
            "SecondDerivativeMeanMotion": "00000+0",
            "BSTAR": "00000+0",
            "SetNumber": "999",
            "Inclination": 55.296,
            "RAAN": 237.3743,
            "Eccentricity": 0.0003769,
            "ArgumentOfPerigee": 358.2808,
            "MeanAnomaly": 1.7588,
            "MeanMotion": 1.7047302,
            "RevolutionNumber": "5295"
        },
        {
            "Name": "GSAT0210 (GALILEO 13)",
            "Line1": "1 41550U 16030B   24327.72082718 -.00000027  00000+0  00000+0 0  9996",
            "Line2": "2 41550  55.2958 237.4138 0001979 245.9951 114.0268  1.70473516 52924",
            "SatelliteNumber": "41550",
            "Classification": "U",
            "LaunchYear": "16",
            "LaunchNumber": "030",
            "PieceOfLaunch": "B",
            "EpochYear": "24",
            "EpochDay": 327.72082718,
            "FirstDerivativeMeanMotion": -2.7e-07,
            "SecondDerivativeMeanMotion": "00000+0",
            "BSTAR": "00000+0",
            "SetNumber": "999",
            "Inclination": 55.2958,
            "RAAN": 237.4138,
            "Eccentricity": 0.0001979,
            "ArgumentOfPerigee": 245.9951,
            "MeanAnomaly": 114.0268,
            "MeanMotion": 1.70473516,
            "RevolutionNumber": "5292"
        },
        {
            "Name": "GSAT0207 (GALILEO 15)",
            "Line1": "1 41859U 16069A   24329.17308714  .00000053  00000+0  00000+0 0  9996",
            "Line2": "2 41859  55.1682 116.8802 0001765 312.5568  47.4129  1.70474437 49907",
            "SatelliteNumber": "41859",
            "Classification": "U",
            "LaunchYear": "16",
            "LaunchNumber": "069",
            "PieceOfLaunch": "A",
            "EpochYear": "24",
            "EpochDay": 329.17308714,
            "FirstDerivativeMeanMotion": 5.3e-07,
            "SecondDerivativeMeanMotion": "00000+0",
            "BSTAR": "00000+0",
            "SetNumber": "999",
            "Inclination": 55.1682,
            "RAAN": 116.8802,
            "Eccentricity": 0.0001765,
            "ArgumentOfPerigee": 312.5568,
            "MeanAnomaly": 47.4129,
            "MeanMotion": 1.70474437,
            "RevolutionNumber": "4990"
        },
        {
            "Name": "GSAT0212 (GALILEO 16)",
            "Line1": "1 41860U 16069B   24329.02720506  .00000053  00000+0  00000+0 0  9999",
            "Line2": "2 41860  55.1671 116.8802 0001876  33.4826 326.5139  1.70474678 49938",
            "SatelliteNumber": "41860",
            "Classification": "U",
            "LaunchYear": "16",
            "LaunchNumber": "069",
            "PieceOfLaunch": "B",
            "EpochYear": "24",
            "EpochDay": 329.02720506,
            "FirstDerivativeMeanMotion": 5.3e-07,
            "SecondDerivativeMeanMotion": "00000+0",
            "BSTAR": "00000+0",
            "SetNumber": "999",
            "Inclination": 55.1671,
            "RAAN": 116.8802,
            "Eccentricity": 0.0001876,
            "ArgumentOfPerigee": 33.4826,
            "MeanAnomaly": 326.5139,
            "MeanMotion": 1.70474678,
            "RevolutionNumber": "4993"
        },
        {
            "Name": "GSAT0213 (GALILEO 17)",
            "Line1": "1 41861U 16069C   24328.22233383  .00000051  00000+0  00000+0 0  9991",
            "Line2": "2 41861  55.1676 116.9097 0001920 265.0171  94.9446  1.70474960 49781",
            "SatelliteNumber": "41861",
            "Classification": "U",
            "LaunchYear": "16",
            "LaunchNumber": "069",
            "PieceOfLaunch": "C",
            "EpochYear": "24",
            "EpochDay": 328.22233383,
            "FirstDerivativeMeanMotion": 5.1e-07,
            "SecondDerivativeMeanMotion": "00000+0",
            "BSTAR": "00000+0",
            "SetNumber": "999",
            "Inclination": 55.1676,
            "RAAN": 116.9097,
            "Eccentricity": 0.000192,
            "ArgumentOfPerigee": 265.0171,
            "MeanAnomaly": 94.9446,
            "MeanMotion": 1.7047496,
            "RevolutionNumber": "4978"
        },
        {
            "Name": "GSAT0214 (GALILEO 18)",
            "Line1": "1 41862U 16069D   24328.36775788  .00000051  00000+0  00000+0 0  9997",
            "Line2": "2 41862  55.1663 116.8988 0001002 261.4215  98.5510  1.70474731 49919",
            "SatelliteNumber": "41862",
            "Classification": "U",
            "LaunchYear": "16",
            "LaunchNumber": "069",
            "PieceOfLaunch": "D",
            "EpochYear": "24",
            "EpochDay": 328.36775788,
            "FirstDerivativeMeanMotion": 5.1e-07,
            "SecondDerivativeMeanMotion": "00000+0",
            "BSTAR": "00000+0",
            "SetNumber": "999",
            "Inclination": 55.1663,
            "RAAN": 116.8988,
            "Eccentricity": 0.0001002,
            "ArgumentOfPerigee": 261.4215,
            "MeanAnomaly": 98.551,
            "MeanMotion": 1.70474731,
            "RevolutionNumber": "4991"
        },
        {
            "Name": "GSAT0215 (GALILEO 19)",
            "Line1": "1 43055U 17079A   24329.44413303 -.00000023  00000+0  00000+0 0  9997",
            "Line2": "2 43055  55.2727 237.1878 0001722 307.7367  52.2890  1.70473836 43279",
            "SatelliteNumber": "43055",
            "Classification": "U",
            "LaunchYear": "17",
            "LaunchNumber": "079",
            "PieceOfLaunch": "A",
            "EpochYear": "24",
            "EpochDay": 329.44413303,
            "FirstDerivativeMeanMotion": -2.3e-07,
            "SecondDerivativeMeanMotion": "00000+0",
            "BSTAR": "00000+0",
            "SetNumber": "999",
            "Inclination": 55.2727,
            "RAAN": 237.1878,
            "Eccentricity": 0.0001722,
            "ArgumentOfPerigee": 307.7367,
            "MeanAnomaly": 52.289,
            "MeanMotion": 1.70473836,
            "RevolutionNumber": "4327"
        },
        {
            "Name": "GSAT0216 (GALILEO 20)",
            "Line1": "1 43056U 17079B   24328.56254637 -.00000026  00000+0  00000+0 0  9996",
            "Line2": "2 43056  55.2736 237.2121 0003161 302.8234  57.1878  1.70473922 43243",
            "SatelliteNumber": "43056",
            "Classification": "U",
            "LaunchYear": "17",
            "LaunchNumber": "079",
            "PieceOfLaunch": "B",
            "EpochYear": "24",
            "EpochDay": 328.56254637,
            "FirstDerivativeMeanMotion": -2.6e-07,
            "SecondDerivativeMeanMotion": "00000+0",
            "BSTAR": "00000+0",
            "SetNumber": "999",
            "Inclination": 55.2736,
            "RAAN": 237.2121,
            "Eccentricity": 0.0003161,
            "ArgumentOfPerigee": 302.8234,
            "MeanAnomaly": 57.1878,
            "MeanMotion": 1.70473922,
            "RevolutionNumber": "4324"
        },
        {
            "Name": "GSAT0217 (GALILEO 21)",
            "Line1": "1 43057U 17079C   24329.36966626 -.00000023  00000+0  00000+0 0  9991",
            "Line2": "2 43057  55.2716 237.1882 0003070 324.4369  35.5840  1.70473873 43270",
            "SatelliteNumber": "43057",
            "Classification": "U",
            "LaunchYear": "17",
            "LaunchNumber": "079",
            "PieceOfLaunch": "C",
            "EpochYear": "24",
            "EpochDay": 329.36966626,
            "FirstDerivativeMeanMotion": -2.3e-07,
            "SecondDerivativeMeanMotion": "00000+0",
            "BSTAR": "00000+0",
            "SetNumber": "999",
            "Inclination": 55.2716,
            "RAAN": 237.1882,
            "Eccentricity": 0.000307,
            "ArgumentOfPerigee": 324.4369,
            "MeanAnomaly": 35.584,
            "MeanMotion": 1.70473873,
            "RevolutionNumber": "4327"
        }
    ]
}